{
  "generated_at": "2026-06-17T10:56:02+00:00",
  "source": "celestrak.org",
  "satellite_count": 9,
  "satellites": [
    {
      "id": "terra",
      "name": "TERRA",
      "platform": "EOS",
      "sensor": "MODIS",
      "swath_km": 2330,
      "color": "#39d0d8",
      "norad": 25994,
      "tle1": "1 25994U 99068A   26168.15893560  .00000317  00000+0  73529-4 0  9991",
      "tle2": "2 25994  97.9456 217.7063 0001580 189.5468 254.9608 14.61103081409600"
    },
    {
      "id": "aqua",
      "name": "AQUA",
      "platform": "EOS",
      "sensor": "MODIS",
      "swath_km": 2330,
      "color": "#2bb673",
      "norad": 27424,
      "tle1": "1 27424U 02022A   26168.19649029  .00000611  00000+0  13132-3 0  9998",
      "tle2": "2 27424  98.4277 137.4794 0001104  53.1321  36.7458 14.62158088283272"
    },
    {
      "id": "snpp",
      "name": "SUOMI NPP",
      "platform": "JPSS",
      "sensor": "VIIRS",
      "swath_km": 3000,
      "color": "#ff8c42",
      "norad": 37849,
      "tle1": "1 37849U 11061A   26168.19957133  .00000045  00000+0  42621-4 0  9998",
      "tle2": "2 37849  98.7953 109.0755 0001534   6.8012 353.3185 14.19517331758442"
    },
    {
      "id": "noaa20",
      "name": "NOAA 20",
      "platform": "JPSS",
      "sensor": "VIIRS",
      "swath_km": 3000,
      "color": "#ffaa00",
      "norad": 43013,
      "tle1": "1 43013U 17073A   26168.14230706  .00000052  00000+0  45699-4 0  9998",
      "tle2": "2 43013  98.7771 107.6053 0000297  96.7704 263.3506 14.19511730444464"
    },
    {
      "id": "noaa21",
      "name": "NOAA 21",
      "platform": "JPSS",
      "sensor": "VIIRS",
      "swath_km": 3000,
      "color": "#ff5a3a",
      "norad": 54234,
      "tle1": "1 54234U 22150A   26168.10472630  .00000032  00000+0  35854-4 0  9997",
      "tle2": "2 54234  98.7059 106.8953 0001662 153.9471 206.1789 14.19565432186531"
    },
    {
      "id": "sentinel2a",
      "name": "SENTINEL-2A",
      "platform": "Copernicus",
      "sensor": "MSI",
      "swath_km": 290,
      "color": "#b388ff",
      "norad": 40697,
      "tle1": "1 40697U 15028A   26168.14476082 -.00000079  00000+0 -13336-4 0  9994",
      "tle2": "2 40697  98.5689 242.9966 0001097  91.4109 268.7200 14.30814810573721"
    },
    {
      "id": "sentinel2b",
      "name": "SENTINEL-2B",
      "platform": "Copernicus",
      "sensor": "MSI",
      "swath_km": 290,
      "color": "#9d6dff",
      "norad": 42063,
      "tle1": "1 42063U 17013A   26168.20749192 -.00000114  00000+0 -26946-4 0  9992",
      "tle2": "2 42063  98.5696 242.9814 0001177  89.0409 271.0909 14.30816350484641"
    },
    {
      "id": "sentinel3a",
      "name": "SENTINEL-3A",
      "platform": "Copernicus",
      "sensor": "OLCI",
      "swath_km": 1270,
      "color": "#7a4fff",
      "norad": 41335,
      "tle1": "1 41335U 16011A   26168.14642413  .00000085  00000+0  53185-4 0  9991",
      "tle2": "2 41335  98.6249 235.5307 0001402 102.1879 257.9459 14.26739977538053"
    },
    {
      "id": "sentinel3b",
      "name": "SENTINEL-3B",
      "platform": "Copernicus",
      "sensor": "OLCI",
      "swath_km": 1270,
      "color": "#5e3bff",
      "norad": 43437,
      "tle1": "1 43437U 18039A   26168.04944810  .00000089  00000+0  54716-4 0  9998",
      "tle2": "2 43437  98.6249 235.5837 0000725  88.7172 271.4091 14.26734699424107"
    }
  ]
}